{
    "links": {
        "self": "http://www.neowsapp.com/rest/v1/neo/3760493?api_key=iIulBulltgU6a56xZRHN4H3l9WmuAYTsLGpBGhQ2"
    },
    "id": "3760493",
    "neo_reference_id": "3760493",
    "name": "(2016 TB11)",
    "designation": "2016 TB11",
    "nasa_jpl_url": "http://ssd.jpl.nasa.gov/sbdb.cgi?sstr=3760493",
    "absolute_magnitude_h": 25.2,
    "estimated_diameter": {
        "kilometers": {
            "estimated_diameter_min": 0.0242412481,
            "estimated_diameter_max": 0.0542050786
        },
        "meters": {
            "estimated_diameter_min": 24.2412481101,
            "estimated_diameter_max": 54.2050786336
        },
        "miles": {
            "estimated_diameter_min": 0.0150628086,
            "estimated_diameter_max": 0.0336814639
        },
        "feet": {
            "estimated_diameter_min": 79.5316564495,
            "estimated_diameter_max": 177.8381901842
        }
    },
    "is_potentially_hazardous_asteroid": false,
    "close_approach_data": [
        {
            "close_approach_date": "2016-10-01",
            "close_approach_date_full": "2016-Oct-01 02:41",
            "epoch_date_close_approach": 1475289660000,
            "relative_velocity": {
                "kilometers_per_second": "11.8626407536",
                "kilometers_per_hour": "42705.5067127904",
                "miles_per_hour": "26535.5411016225"
            },
            "miss_distance": {
                "astronomical": "0.0267346779",
                "lunar": "10.3997897031",
                "kilometers": "3999450.868976073",
                "miles": "2485143.5323448874"
            },
            "orbiting_body": "Earth"
        },
        {
            "close_approach_date": "2098-10-22",
            "close_approach_date_full": "2098-Oct-22 07:31",
            "epoch_date_close_approach": 4064801460000,
            "relative_velocity": {
                "kilometers_per_second": "19.9835742496",
                "kilometers_per_hour": "71940.8672984174",
                "miles_per_hour": "44701.2572388417"
            },
            "miss_distance": {
                "astronomical": "0.2838371753",
                "lunar": "110.4126611917",
                "kilometers": "42461436.851696611",
                "miles": "26384313.4027747918"
            },
            "orbiting_body": "Earth"
        }
    ],
    "orbital_data": {
        "orbit_id": "3",
        "orbit_determination_date": "2017-08-10 06:20:10",
        "first_observation_date": "2016-09-29",
        "last_observation_date": "2016-10-07",
        "data_arc_in_days": 8,
        "observations_used": 36,
        "orbit_uncertainty": "8",
        "minimum_orbit_intersection": ".0257249",
        "jupiter_tisserand_invariant": "3.897",
        "epoch_osculation": "2457667.5",
        "eccentricity": ".4990321956090343",
        "semi_major_axis": "1.799685356806398",
        "inclination": "9.250716509552758",
        "ascending_node_longitude": "196.8667810555397",
        "orbital_period": "881.8471210260769",
        "perihelion_distance": ".9015844217938728",
        "perihelion_argument": "123.976196862715",
        "aphelion_distance": "2.697786291818922",
        "perihelion_time": "2457626.088024159216",
        "mean_anomaly": "16.90577759706877",
        "mean_motion": ".4082340253956043",
        "equinox": "J2000",
        "orbit_class": {
            "orbit_class_type": "APO",
            "orbit_class_description": "Near-Earth asteroid orbits which cross the Earth’s orbit similar to that of 1862 Apollo",
            "orbit_class_range": "a (semi-major axis) > 1.0 AU; q (perihelion) < 1.017 AU"
        }
    },
    "is_sentry_object": false
}